OBJECT_NAME,OBJECT_ID,EPOCH,MEAN_MOTION,ECCENTRICITY,INCLINATION,RA_OF_ASC_NODE,ARG_OF_PERICENTER,MEAN_ANOMALY,EPHEMERIS_TYPE,CLASSIFICATION_TYPE,NORAD_CAT_ID,ELEMENT_SET_NO,REV_AT_EPOCH,BSTAR,MEAN_MOTION_DOT,MEAN_MOTION_DDOT
LEMUR-2-FINNIAN,2025-276DX,2026-07-15T03:43:26.139360,15.00617476,.0007355,97.5350,266.2766,0.2021,359.9204,0,U,66782,999,2419,.12854E-3,.1567E-4,0
LEMUR-2-STARLIGHT,2025-276DY,2026-07-15T17:40:21.800352,14.99359751,.00147031,97.5237,266.3990,45.9551,314.2881,0,U,66783,999,3447,.3253785E-3,.3931E-4,0
LEMUR-2-TARTIFLETTE,2025-276DZ,2026-07-15T17:38:04.104672,14.99344051,.00139324,97.5233,266.4060,54.0986,306.1528,0,U,66784,999,3447,.29425154E-3,.3547E-4,0
LEMUR-2-VUKASIN,2025-276EA,2026-07-15T10:30:39.583296,15.00547816,.00030097,97.5225,266.4784,54.6236,305.5269,0,U,66785,999,3438,.20106065E-3,.2479E-4,0
LEMUR-2-HOTSPUR-TOM,2025-276EB,2026-07-15T17:30:03.479616,14.99244890,.00137707,97.5218,266.3745,45.5113,314.7234,0,U,66786,999,3440,.25595377E-3,.307E-4,0
LEMUR-2-MYRA,2025-276EC,2026-07-15T17:40:40.534464,15.00593508,.00186767,97.5220,266.6868,52.7156,307.5768,0,U,66787,999,3449,.27978743E-3,.3488E-4,0
LEMUR-2 FIKRETDENGIZ,2026-004A,2026-07-15T23:23:09.964032,14.88519982,.00101456,97.8025,195.0951,53.5985,306.6166,0,U,67363,999,2756,.18370795E-3,.1654E-4,0
TWILIGHT-1 OBJECT B,2026-004B,2026-07-15T22:40:21.165888,14.87794860,.00096849,97.8075,195.0660,43.7671,316.4311,0,U,67364,999,2756,.10232873E-3,.88E-5,0
LEMUR-2-MARIO-SOUSA,2026-004C,2026-07-15T22:54:00.657792,14.88731264,.00098022,97.7998,195.0701,54.9216,305.2919,0,U,67365,999,2757,.25950613E-3,.2372E-4,0
LEMUR-2-SONNENBLUME,2026-004E,2026-07-15T22:58:19.217568,14.88455287,.00093522,97.8001,195.0453,55.9946,304.2158,0,U,67367,999,2757,.15379351E-3,.1373E-4,0
LEMUR-2-WOBLER,2026-004F,2026-07-15T22:42:42.985440,14.88700946,.00094231,97.8049,195.1864,48.0590,312.1428,0,U,67368,999,2757,.2385745E-3,.2174E-4,0
LEMUR-2-GRAM-E-SUE,2026-004H,2026-07-15T22:31:27.832512,14.88591282,.00085555,97.7987,195.0435,58.9948,301.2109,0,U,67370,999,2757,.13685027E-3,.122E-4,0
LEMUR-2-KATIE,2026-004AA,2026-07-15T18:14:55.437504,14.90254887,.00034704,97.8043,195.4216,32.8536,327.2897,0,U,67387,999,2756,.2697952E-3,.2563E-4,0
LEMUR-2-HCS-BAZUS,2026-004AB,2026-07-15T21:25:55.433280,14.90263817,.00029239,97.8038,195.5306,31.8037,328.3357,0,U,67388,999,2758,.15797459E-3,.1478E-4,0
